[{"OBJECT_NAME":"ALOS (DAICHI)","OBJECT_ID":"2006-002A","EPOCH":"2026-03-23T07:44:09.252384","MEAN_MOTION":14.69850614,"ECCENTRICITY":7.08e-5,"INCLINATION":98.1241,"RA_OF_ASC_NODE":38.2116,"ARG_OF_PERICENTER":93.7535,"MEAN_ANOMALY":266.3751,"EPHEMERIS_TYPE":0,"CLASSIFICATION_TYPE":"U","NORAD_CAT_ID":28931,"ELEMENT_SET_NO":999,"REV_AT_EPOCH":7548,"BSTAR":0.00024465,"MEAN_MOTION_DOT":1.413e-5,"MEAN_MOTION_DDOT":0},{"OBJECT_NAME":"H-2A R/B","OBJECT_ID":"2006-002B","EPOCH":"2026-03-23T07:59:28.975200","MEAN_MOTION":15.16713318,"ECCENTRICITY":0.0052251,"INCLINATION":98.2446,"RA_OF_ASC_NODE":230.5349,"ARG_OF_PERICENTER":194.1406,"MEAN_ANOMALY":165.8366,"EPHEMERIS_TYPE":0,"CLASSIFICATION_TYPE":"U","NORAD_CAT_ID":28932,"ELEMENT_SET_NO":999,"REV_AT_EPOCH":9650,"BSTAR":0.00056425,"MEAN_MOTION_DOT":0.0001138,"MEAN_MOTION_DDOT":0},{"OBJECT_NAME":"RESURS-DK 1","OBJECT_ID":"2006-021A","EPOCH":"2026-03-23T08:31:06.140352","MEAN_MOTION":15.1283384,"ECCENTRICITY":7.07e-5,"INCLINATION":69.9339,"RA_OF_ASC_NODE":201.6732,"ARG_OF_PERICENTER":95.9885,"MEAN_ANOMALY":264.1361,"EPHEMERIS_TYPE":0,"CLASSIFICATION_TYPE":"U","NORAD_CAT_ID":29228,"ELEMENT_SET_NO":999,"REV_AT_EPOCH":8959,"BSTAR":0.00017848,"MEAN_MOTION_DOT":3.037e-5,"MEAN_MOTION_DDOT":0},{"OBJECT_NAME":"CZ-4B R/B","OBJECT_ID":"2006-046C","EPOCH":"2026-03-23T12:39:22.719456","MEAN_MOTION":15.17040392,"ECCENTRICITY":0.0032258,"INCLINATION":97.5564,"RA_OF_ASC_NODE":127.3985,"ARG_OF_PERICENTER":217.2953,"MEAN_ANOMALY":142.6041,"EPHEMERIS_TYPE":0,"CLASSIFICATION_TYPE":"U","NORAD_CAT_ID":29507,"ELEMENT_SET_NO":999,"REV_AT_EPOCH":6214,"BSTAR":0.0002697,"MEAN_MOTION_DOT":5.336e-5,"MEAN_MOTION_DDOT":0},{"OBJECT_NAME":"CZ-2C R/B","OBJECT_ID":"2007-010B","EPOCH":"2026-03-23T12:49:09.467904","MEAN_MOTION":14.20250948,"ECCENTRICITY":0.0057906,"INCLINATION":98.3993,"RA_OF_ASC_NODE":195.1199,"ARG_OF_PERICENTER":253.5602,"MEAN_ANOMALY":105.9206,"EPHEMERIS_TYPE":0,"CLASSIFICATION_TYPE":"U","NORAD_CAT_ID":31114,"ELEMENT_SET_NO":999,"REV_AT_EPOCH":98168,"BSTAR":7.9032e-5,"MEAN_MOTION_DOT":1.3e-6,"MEAN_MOTION_DDOT":0},{"OBJECT_NAME":"COSMO-SKYMED 1","OBJECT_ID":"2007-023A","EPOCH":"2026-03-23T12:06:25.558272","MEAN_MOTION":14.96636711,"ECCENTRICITY":0.0001128,"INCLINATION":97.888,"RA_OF_ASC_NODE":273.6491,"ARG_OF_PERICENTER":87.0809,"MEAN_ANOMALY":273.0541,"EPHEMERIS_TYPE":0,"CLASSIFICATION_TYPE":"U","NORAD_CAT_ID":31598,"ELEMENT_SET_NO":999,"REV_AT_EPOCH":1697,"BSTAR":0.00028841,"MEAN_MOTION_DOT":3.228e-5,"MEAN_MOTION_DDOT":0},{"OBJECT_NAME":"COSMOS 2428","OBJECT_ID":"2007-029A","EPOCH":"2026-03-23T13:15:04.000032","MEAN_MOTION":14.12947923,"ECCENTRICITY":0.0009618,"INCLINATION":70.9441,"RA_OF_ASC_NODE":174.2491,"ARG_OF_PERICENTER":262.8755,"MEAN_ANOMALY":97.1273,"EPHEMERIS_TYPE":0,"CLASSIFICATION_TYPE":"U","NORAD_CAT_ID":31792,"ELEMENT_SET_NO":999,"REV_AT_EPOCH":96605,"BSTAR":2.3399e-5,"MEAN_MOTION_DOT":-4.0e-8,"MEAN_MOTION_DDOT":0},{"OBJECT_NAME":"SL-16 R/B","OBJECT_ID":"2007-029B","EPOCH":"2026-03-23T08:27:49.495680","MEAN_MOTION":14.14841436,"ECCENTRICITY":0.0002478,"INCLINATION":70.9756,"RA_OF_ASC_NODE":143.6657,"ARG_OF_PERICENTER":276.7773,"MEAN_ANOMALY":156.3817,"EPHEMERIS_TYPE":0,"CLASSIFICATION_TYPE":"U","NORAD_CAT_ID":31793,"ELEMENT_SET_NO":999,"REV_AT_EPOCH":96730,"BSTAR":0.00015678,"MEAN_MOTION_DOT":2.55e-6,"MEAN_MOTION_DDOT":0},{"OBJECT_NAME":"KORONAS-FOTON","OBJECT_ID":"2009-003A","EPOCH":"2026-03-23T12:12:02.633184","MEAN_MOTION":15.43673139,"ECCENTRICITY":0.0011814,"INCLINATION":82.4277,"RA_OF_ASC_NODE":261.5046,"ARG_OF_PERICENTER":104.7881,"MEAN_ANOMALY":255.4676,"EPHEMERIS_TYPE":0,"CLASSIFICATION_TYPE":"U","NORAD_CAT_ID":33504,"ELEMENT_SET_NO":999,"REV_AT_EPOCH":94787,"BSTAR":0.00032064,"MEAN_MOTION_DOT":0.0001453,"MEAN_MOTION_DDOT":0},{"OBJECT_NAME":"CZ-2C R/B","OBJECT_ID":"2011-030B","EPOCH":"2026-03-23T08:04:26.254272","MEAN_MOTION":14.81269701,"ECCENTRICITY":0.0051337,"INCLINATION":97.8569,"RA_OF_ASC_NODE":39.3288,"ARG_OF_PERICENTER":307.1121,"MEAN_ANOMALY":175.1181,"EPHEMERIS_TYPE":0,"CLASSIFICATION_TYPE":"U","NORAD_CAT_ID":37731,"ELEMENT_SET_NO":999,"REV_AT_EPOCH":79211,"BSTAR":0.00020222,"MEAN_MOTION_DOT":1.557e-5,"MEAN_MOTION_DDOT":0},{"OBJECT_NAME":"H-2A R/B","OBJECT_ID":"2012-025E","EPOCH":"2026-03-22T20:16:48.889056","MEAN_MOTION":14.9525535,"ECCENTRICITY":0.00429324,"INCLINATION":98.4752,"RA_OF_ASC_NODE":49.9468,"ARG_OF_PERICENTER":269.7267,"MEAN_ANOMALY":89.9031,"EPHEMERIS_TYPE":0,"CLASSIFICATION_TYPE":"U","NORAD_CAT_ID":38341,"ELEMENT_SET_NO":999,"REV_AT_EPOCH":75018,"BSTAR":0.00034053586,"MEAN_MOTION_DOT":3.747e-5,"MEAN_MOTION_DDOT":0},{"OBJECT_NAME":"SHIJIAN-16 (SJ-16)","OBJECT_ID":"2013-057A","EPOCH":"2026-03-23T12:08:21.759360","MEAN_MOTION":14.92405481,"ECCENTRICITY":0.0015185,"INCLINATION":74.9728,"RA_OF_ASC_NODE":158.9343,"ARG_OF_PERICENTER":76.7359,"MEAN_ANOMALY":283.5522,"EPHEMERIS_TYPE":0,"CLASSIFICATION_TYPE":"U","NORAD_CAT_ID":39358,"ELEMENT_SET_NO":999,"REV_AT_EPOCH":67356,"BSTAR":0.00035956,"MEAN_MOTION_DOT":3.663e-5,"MEAN_MOTION_DDOT":0},{"OBJECT_NAME":"SL-4 R/B","OBJECT_ID":"2014-021B","EPOCH":"2026-03-23T12:30:28.294848","MEAN_MOTION":15.39631914,"ECCENTRICITY":0.0096281,"INCLINATION":51.6055,"RA_OF_ASC_NODE":269.7772,"ARG_OF_PERICENTER":153.3896,"MEAN_ANOMALY":207.2077,"EPHEMERIS_TYPE":0,"CLASSIFICATION_TYPE":"U","NORAD_CAT_ID":39679,"ELEMENT_SET_NO":999,"REV_AT_EPOCH":65840,"BSTAR":0.00036974,"MEAN_MOTION_DOT":0.00017018,"MEAN_MOTION_DDOT":0},{"OBJECT_NAME":"ALOS-2","OBJECT_ID":"2014-029A","EPOCH":"2026-03-23T12:22:35.967648","MEAN_MOTION":14.79428636,"ECCENTRICITY":0.0001889,"INCLINATION":97.9189,"RA_OF_ASC_NODE":180.912,"ARG_OF_PERICENTER":108.8417,"MEAN_ANOMALY":251.2999,"EPHEMERIS_TYPE":0,"CLASSIFICATION_TYPE":"U","NORAD_CAT_ID":39766,"ELEMENT_SET_NO":999,"REV_AT_EPOCH":63891,"BSTAR":0.00033531,"MEAN_MOTION_DOT":2.451e-5,"MEAN_MOTION_DDOT":0},{"OBJECT_NAME":"YAOGAN-29","OBJECT_ID":"2015-069A","EPOCH":"2026-03-23T13:24:33.848640","MEAN_MOTION":14.83010503,"ECCENTRICITY":9.18e-5,"INCLINATION":98.0118,"RA_OF_ASC_NODE":111.0239,"ARG_OF_PERICENTER":12.6733,"MEAN_ANOMALY":347.4503,"EPHEMERIS_TYPE":0,"CLASSIFICATION_TYPE":"U","NORAD_CAT_ID":41038,"ELEMENT_SET_NO":999,"REV_AT_EPOCH":55793,"BSTAR":0.00011256,"MEAN_MOTION_DOT":8.61e-6,"MEAN_MOTION_DDOT":0},{"OBJECT_NAME":"ASTRO-H (HITOMI)","OBJECT_ID":"2016-012A","EPOCH":"2026-03-23T04:26:03.650208","MEAN_MOTION":15.10087472,"ECCENTRICITY":0.00095941,"INCLINATION":30.999,"RA_OF_ASC_NODE":269.4558,"ARG_OF_PERICENTER":107.0952,"MEAN_ANOMALY":253.0738,"EPHEMERIS_TYPE":0,"CLASSIFICATION_TYPE":"U","NORAD_CAT_ID":41337,"ELEMENT_SET_NO":999,"REV_AT_EPOCH":55427,"BSTAR":0.00019437401,"MEAN_MOTION_DOT":3.342e-5,"MEAN_MOTION_DDOT":0},{"OBJECT_NAME":"HXMT (HUIYAN)","OBJECT_ID":"2017-034A","EPOCH":"2026-03-23T08:04:17.285952","MEAN_MOTION":15.17638372,"ECCENTRICITY":0.003262,"INCLINATION":43.0144,"RA_OF_ASC_NODE":300.7943,"ARG_OF_PERICENTER":319.116,"MEAN_ANOMALY":40.7243,"EPHEMERIS_TYPE":0,"CLASSIFICATION_TYPE":"U","NORAD_CAT_ID":42758,"ELEMENT_SET_NO":999,"REV_AT_EPOCH":48461,"BSTAR":0.00032338,"MEAN_MOTION_DOT":6.479e-5,"MEAN_MOTION_DDOT":0}]
